SUOMI NPP               
1 37849U 11061A   26190.26167690  .00000034  00000+0  37190-4 0  9995
2 37849  98.7956 130.9874 0000569 257.0030 103.1082 14.19521880761576
YAOGAN-12               
1 37875U 11066B   26190.55000557  .00004033  00000+0  15524-3 0  9998
2 37875  97.1135 228.0683 0010786 140.2881 219.9150 15.26859276815454
BEIDOU-2 M4             
1 38251U 12018B   26186.91456642 -.00000061  00000+0  00000+0 0  9997
2 38251  55.6406 303.4567 0011823 273.7127  86.1743  1.86229838 96291
ARIRANG-3 (KOMPSAT-3)   
1 38338U 12025B   26190.27250127  .00000303  00000+0  69359-4 0  9990
2 38338  98.1182 147.3528 0006535  54.2122 305.9686 14.62225881754575
METOP-B                 
1 38771U 12049A   26190.29236384  .00000055  00000+0  45075-4 0  9991
2 38771  98.6492 241.3493 0001073 292.2895  67.8168 14.21445293716409
SJ-9A                   
1 38860U 12056A   26190.19087085  .00000736  00000+0  90860-4 0  9997
2 38860  97.6723 161.3486 0025429 181.3891 178.7258 14.85521279702857
COSMOS 2484 (RODNIK-S 6)
1 39059U 13001C   26190.28178075 -.00000088  00000+0 -70283-3 0  9997
2 39059  82.5002 208.1559 0025911 348.7006  11.3489 12.42939615611300
SARAL                   
1 39086U 13009A   26190.31670351  .00000066  00000+0  40160-4 0  9999
2 39086  98.5554  16.6040 0001344 182.6701 177.4476 14.32894777698773
STRAND-1                
1 39090U 13009E   26189.91715955  .00000195  00000+0  79795-4 0  9997
2 39090  98.3931   9.6176 0009049 158.4879 201.6690 14.37176360700187
BRITE-AUSTRIA           
1 39091U 13009F   26189.93945591  .00000114  00000+0  53493-4 0  9999
2 39091  98.4005   8.8378 0010385 168.5831 191.5593 14.36550763700171
GAOFEN-1                
1 39150U 13018A   26190.29078579  .00000328  00000+0  54204-4 0  9997
2 39150  97.9083 261.9090 0016574 190.2733 169.8141 14.76514383711507
NEE-01 PEGASO           
1 39151U 13018B   26189.63488288  .00001612  00000+0  15764-3 0  9990
2 39151  98.1251 334.4982 0013931  93.6559 266.6253 14.93773274713901
PROBA-V                 
1 39159U 13021A   26189.90738591  .00000065  00000+0  46709-4 0  9992
2 39159  98.3600 167.4432 0005393  74.2833 285.8941 14.23602599684207
ARIRANG-5 (KOMPSAT-5)   
1 39227U 13042A   26190.31330897  .00000731  00000+0  56520-4 0  9997
2 39227  97.6223  16.7028 0005482  72.4277 287.7547 15.04517206707180
GONETS-M 5              
1 39249U 13048A   26190.33204154  .00000176  00000+0  11963-2 0  9998
2 39249  82.4848 329.5759 0017104 161.9854 198.1835 12.42893026581635
GONETS-M 7              
1 39251U 13048C   26190.29459660  .00000196  00000+0  13426-2 0  9998
2 39251  82.4915 332.5329 0017889 163.3651 196.8019 12.42915911581582
FENGYUN 3C              
1 39260U 13052A   26190.23525132  .00000055  00000+0  49007-4 0  9995
2 39260  98.4993 163.0992 0013932 324.1445  35.8794 14.15759960661685
CASSIOPE                
1 39265U 13055A   26190.25606435  .00033027 -45748-6  35511-3 0  9996
2 39265  80.9140  39.8788 0284311 348.0376  11.4191 15.27134878671032
APRIZESAT 7             
1 39416U 13066A   26190.29181148  .00000962  00000+0  10031-3 0  9995
2 39416  97.7719 143.1956 0036823 136.2603 224.1544 14.91611282684529
ZACUBE-1 (TSHEPISOSAT)  
1 39417U 13066B   26190.13615696  .00001581  00000+0  12533-3 0  9996
2 39417  97.8016 152.5825 0043657 174.6140 185.5562 15.01311101684029
APRIZESAT 8             
1 39425U 13066K   26190.27018226  .00000580  00000+0  68770-4 0  9999
2 39425  97.8227 137.4314 0045007 211.6319 148.2191 14.87690621682952
